ONEWEB-0235             
1 48771U 21045E   26020.72919859  .00000143  00000+0  34524-3 0  9997
2 48771  87.9010 288.6191 0001203  62.4798 297.6454 13.15549338224996
ONEWEB-0242             
1 48772U 21045F   26020.72286138  .00000115  00000+0  27073-3 0  9995
2 48772  87.9010 288.6151 0001544  68.1298 291.9996 13.15549092225030
ONEWEB-0241             
1 48773U 21045G   26020.71018292  .00000030  00000+0  46486-4 0  9995
2 48773  87.9002 288.6515 0001139  77.1886 282.9372 13.15549511224942
ONEWEB-0243             
1 48774U 21045H   26020.74186444  .00000025  00000+0  33121-4 0  9990
2 48774  87.9007 288.6558 0001443  60.4986 299.6289 13.15546573224979
ONEWEB-0222             
1 48775U 21045J   26020.72522800  .00000124  00000+0  29649-3 0  9998
2 48775  87.9013 288.6150 0001391  73.2692 286.8591 13.15546976225010
ONEWEB-0244             
1 48776U 21045K   26020.75137933 -.00000005  00000+0 -48086-4 0  9998
2 48776  87.9018 288.5991 0001484  70.0058 290.1232 13.15549194225589
ONEWEB-0247             
1 48777U 21045L   26020.74820640 -.00000081  00000+0 -25040-3 0  9990
2 48777  87.9002 288.6499 0001295  40.6431 319.4795 13.15547140225022
ONEWEB-0245             
1 48778U 21045M   26020.74346170  .00000002  00000+0 -29383-4 0  9999
2 48778  87.9012 288.6175 0001361  79.1109 281.0174 13.15549240224991
